CZ-2C R/B               
1 54039U 22132E   26009.00726171  .00031100  00000+0  43129-3 0  9998
2 54039  97.2951  10.7649 0017807 318.3042  41.6855 15.56817288181074
GSLV R/B                
1 54149U 22138AN  26008.94241385  .00002430  00000+0  21153-3 0  9994
2 54149  87.3829 186.3621 0022288  15.0258 345.1630 14.96303375174995
XRISM                   
1 57800U 23137A   26008.92737359  .00006010  00000+0  34806-3 0  9997
2 57800  31.0028 309.9701 0007838 162.0453 198.0463 15.10711452128742
ACS3                    
1 59588U 24077B   26008.60543086  .00020308  00000+0  17064-1 0  9994
2 59588  97.2474 323.2074 0064896 270.6777  88.6949 13.86953543 85868
SZ-21 MODULE            
1 66515U 25246C   26007.86050997  .00025291  00000+0  26192-3 0  9992
2 66515  41.4742 216.5245 0001494  84.1343 275.9668 15.64106684  8533
